STARLINK-5591           
1 55771U 23028AG  26068.82371507  .00001439  00000+0  12837-3 0  9995
2 55771  69.9995 224.0962 0003052 271.1011  88.9798 14.98331041166558
LEMUR-2-BALTO           
1 63395U 25052BH  26068.69493058  .00007621  00000+0  63456-3 0  9998
2 63395  97.6978 323.5166 0002279 359.2852   0.8367 14.98934076 53850
